NORAD_CAT_ID,OBJECT_NAME,OBJECT_TYPE,EPOCH,MEAN_MOTION,ECCENTRICITY,INCLINATION,RA_OF_ASC_NODE,ARG_OF_PERICENTER,MEAN_ANOMALY,BSTAR,MEAN_MOTION_DOT,MEAN_MOTION_DDOT,TLE_LINE0,TLE_LINE1,TLE_LINE2,SEMIMAJOR_AXIS,PERIOD,APOGEE,PERIGEE,DECAYED
52858.0,STARLINK-4198,PAYLOAD,2024-01-16 03:19:14,15.08817829,0.0001231,53.2166,301.6522,92.4014,267.7119,-0.00038331,-6.379e-05,0.0,0 STARLINK-4198,1 52858U 22062AE  24016.13836088 -.00006379  00000-0 -38331-3 0  9998,2 52858  53.2166 301.6522 0001231  92.4014 267.7119 15.08817829 88120,6917.948,95.439,540.665,538.962,0.0
52858.0,STARLINK-4198,PAYLOAD,2024-01-16 04:54:37,15.08817926,0.0001198,53.2164,301.3536,97.0867,263.0261,-0.00035209,-5.883e-05,0.0,0 STARLINK-4198,1 52858U 22062AE  24016.20460150 -.00005883  00000-0 -35209-3 0  9999,2 52858  53.2164 301.3536 0001198  97.0867 263.0261 15.08817926 87640,6917.948,95.439,540.642,538.984,0.0
52858.0,STARLINK-4198,PAYLOAD,2024-01-16 19:13:04,15.0883815,5.63e-05,53.2174,298.6832,38.0753,322.0279,8.5705e-05,1.077e-05,0.0,0 STARLINK-4198,1 52858U 22062AE  24016.80075228  .00001077  00000-0  85705-4 0  9999,2 52858  53.2174 298.6832 0000563  38.0753 322.0279 15.08838150 88224,6917.886,95.438,540.141,539.362,0.0
52858.0,STARLINK-4198,PAYLOAD,2024-01-16 22:23:49,15.08867073,0.0001921,53.2167,298.0793,118.846,241.2725,0.00037624,5.709e-05,0.0,0 STARLINK-4198,1 52858U 22062AE  24016.93321475  .00005709  00000-0  37624-3 0  9993,2 52858  53.2167 298.0793 0001921 118.8460 241.2725 15.08867073 87758,6917.798,95.436,540.992,538.334,0.0
52858.0,STARLINK-4198,PAYLOAD,2024-01-17 01:34:35,15.08868929,0.000149,53.2168,297.4846,100.6869,259.4291,0.00041475,6.324e-05,0.0,0 STARLINK-4198,1 52858U 22062AE  24017.06569318  .00006324  00000-0  41475-3 0  9991,2 52858  53.2168 297.4846 0001490 100.6869 259.4291 15.08868929 88261,6917.792,95.436,540.688,538.626,0.0
52858.0,STARLINK-4198,PAYLOAD,2024-01-17 22:14:38,15.08835642,0.0001513,53.2166,293.621,112.4841,247.6311,0.00028507,4.251e-05,0.0,0 STARLINK-4198,1 52858U 22062AE  24017.92683398  .00004251  00000-0  28507-3 0  9999,2 52858  53.2166 293.6210 0001513 112.4841 247.6311 15.08835642 87907,6917.894,95.438,540.805,538.712,0.0
52858.0,STARLINK-4198,PAYLOAD,2024-01-18 01:25:24,15.08837201,0.0001383,53.2166,293.0264,106.6647,253.4497,0.00027019,4.014e-05,0.0,0 STARLINK-4198,1 52858U 22062AE  24018.05931378  .00004014  00000-0  27019-3 0  9992,2 52858  53.2166 293.0264 0001383 106.6647 253.4497 15.08837201 88414,6917.889,95.438,540.711,538.797,0.0
52858.0,STARLINK-4198,PAYLOAD,2024-01-18 04:36:10,15.08838819,0.0001459,53.2167,292.4312,108.4984,251.6167,0.00025547,3.78e-05,0.0,0 STARLINK-4198,1 52858U 22062AE  24018.19179269  .00003780  00000-0  25547-3 0  9993,2 52858  53.2167 292.4312 0001459 108.4984 251.6167 15.08838819 87947,6917.884,95.438,540.758,538.74,0.0
52858.0,STARLINK-4198,PAYLOAD,2024-01-18 22:05:24,15.08844055,0.0001615,53.217,289.1579,109.8229,250.2937,-0.00023853,-4.083e-05,0.0,0 STARLINK-4198,1 52858U 22062AE  24018.92042746 -.00004083  00000-0 -23853-3 0  9990,2 52858  53.2170 289.1579 0001615 109.8229 250.2937 15.08844055 88052,6917.868,95.437,540.85,538.616,0.0
52858.0,STARLINK-4198,PAYLOAD,2024-01-19 02:51:34,15.08848084,0.0001742,53.2176,288.2653,113.791,246.3265,-0.00013041,-2.363e-05,0.0,0 STARLINK-4198,1 52858U 22062AE  24019.11914477 -.00002363  00000-0 -13041-3 0  9998,2 52858  53.2176 288.2653 0001742 113.7910 246.3265 15.08848084 88576,6917.856,95.437,540.926,538.516,0.0
52858.0,STARLINK-4198,PAYLOAD,2024-01-19 21:56:12,15.0883812,0.0001868,53.2177,284.6966,120.4476,239.6701,0.00011275,1.507e-05,0.0,0 STARLINK-4198,1 52858U 22062AE  24019.91403042  .00001507  00000-0  11275-3 0  9991,2 52858  53.2177 284.6966 0001868 120.4476 239.6701 15.08838120 88205,6917.886,95.438,541.043,538.459,0.0
52858.0,STARLINK-4198,PAYLOAD,2024-01-20 01:06:58,15.08841383,0.0001773,53.2174,284.1041,110.2512,249.8671,8.3068e-05,1.034e-05,0.0,0 STARLINK-4198,1 52858U 22062AE  24020.04650929  .00001034  00000-0  83068-4 0  9990,2 52858  53.2174 284.1041 0001773 110.2512 249.8671 15.08841383 88714,6917.876,95.437,540.968,538.515,0.0
52858.0,STARLINK-4198,PAYLOAD,2024-01-20 17:00:50,15.08835796,0.0001809,53.2169,281.1391,65.8236,294.2945,0.00014032,1.946e-05,0.0,0 STARLINK-4198,1 52858U 22062AE  24020.70891806  .00001946  00000-0  14032-3 0  9990,2 52858  53.2169 281.1391 0001809  65.8236 294.2945 15.08835796 88811,6917.893,95.438,541.01,538.507,0.0
52858.0,STARLINK-4198,PAYLOAD,2024-01-20 21:47:00,15.08834922,0.0001709,53.2169,280.2438,81.4192,278.6993,7.2683e-06,-1.72e-06,0.0,0 STARLINK-4198,1 52858U 22062AE  24020.90763928 -.00000172  00000-0  72683-5 0  9994,2 52858  53.2169 280.2438 0001709  81.4192 278.6993 15.08834922 88355,6917.896,95.438,540.943,538.579,0.0
52858.0,STARLINK-4198,PAYLOAD,2024-01-20 23:22:23,15.08836872,0.0001678,53.2174,279.9463,77.4195,282.6985,4.0087e-05,3.5e-06,0.0,0 STARLINK-4198,1 52858U 22062AE  24020.97388097  .00000350  00000-0  40087-4 0  9990,2 52858  53.2174 279.9463 0001678  77.4195 282.6985 15.08836872 88360,6917.89,95.438,540.916,538.594,0.0
52858.0,STARLINK-4198,PAYLOAD,2024-01-21 16:51:37,15.08801185,0.0001947,53.2172,276.6732,89.3824,270.7392,0.00074113,0.00011514,0.0,0 STARLINK-4198,1 52858U 22062AE  24021.70251748  .00011514  00000-0  74113-3 0  9994,2 52858  53.2172 276.6732 0001947  89.3824 270.7392 15.08801185 88966,6917.999,95.44,541.211,538.517,0.0
52858.0,STARLINK-4198,PAYLOAD,2024-01-21 21:37:46,15.08853626,0.0001688,53.2176,275.7823,76.4875,283.6305,6.8269e-05,7.99e-06,0.0,0 STARLINK-4198,1 52858U 22062AE  24021.90122928  .00000799  00000-0  68269-4 0  9992,2 52858  53.2176 275.7823 0001688  76.4875 283.6305 15.08853626 88500,6917.839,95.437,540.871,538.536,0.0
52858.0,STARLINK-4198,PAYLOAD,2024-01-21 23:13:09,15.08854664,0.0001701,53.2172,275.4846,78.3415,281.7768,9.3136e-05,1.195e-05,0.0,0 STARLINK-4198,1 52858U 22062AE  24021.96746779  .00001195  00000-0  93136-4 0  9996,2 52858  53.2172 275.4846 0001701  78.3415 281.7768 15.08854664 89006,6917.836,95.437,540.877,538.524,0.0
52858.0,STARLINK-4198,PAYLOAD,2024-01-22 19:53:10,15.08843462,0.0001799,53.2155,271.6157,114.781,245.337,8.6039e-05,1.082e-05,0.0,0 STARLINK-4198,1 52858U 22062AE  24022.82859275  .00001082  00000-0  86039-4 0  9997,2 52858  53.2155 271.6157 0001799 114.7810 245.3370 15.08843462 89134,6917.87,95.437,540.979,538.49,0.0
52858.0,STARLINK-4198,PAYLOAD,2024-01-22 21:28:33,15.08841545,0.0001557,53.2161,271.3196,103.1422,256.9744,0.00010564,1.394e-05,0.0,0 STARLINK-4198,1 52858U 22062AE  24022.89483404  .00001394  00000-0  10564-3 0  9996,2 52858  53.2161 271.3196 0001557 103.1422 256.9744 15.08841545 88653,6917.876,95.437,540.818,538.664,0.0
52858.0,STARLINK-4198,PAYLOAD,2024-01-23 05:25:28,15.08854691,0.0001341,53.2148,269.8355,71.4812,288.6326,0.00025634,3.796e-05,0.0,0 STARLINK-4198,1 52858U 22062AE  24023.22602877  .00003796  00000-0  25634-3 0  9993,2 52858  53.2148 269.8355 0001341  71.4812 288.6326 15.08854691 88708,6917.835,95.437,540.628,538.773,0.0
52858.0,STARLINK-4198,PAYLOAD,2024-01-23 07:00:52,15.0883307,0.0001636,53.2153,269.5402,60.4921,299.6234,-0.00011433,-2.107e-05,0.0,0 STARLINK-4198,1 52858U 22062AE  24023.29227792 -.00002107  00000-0 -11433-3 0  9998,2 52858  53.2153 269.5402 0001636  60.4921 299.6234 15.08833070 89204,6917.902,95.438,540.898,538.635,0.0
52858.0,STARLINK-4198,PAYLOAD,2024-01-23 22:54:43,15.08847411,0.0001425,53.2141,266.5631,78.1465,281.9687,0.00010148,1.328e-05,0.0,0 STARLINK-4198,1 52858U 22062AE  24023.95467013  .00001328  00000-0  10148-3 0  9997,2 52858  53.2141 266.5631 0001425  78.1465 281.9687 15.08847411 88813,6917.858,95.437,540.709,538.737,0.0
52858.0,STARLINK-4198,PAYLOAD,2024-01-24 06:51:40,15.08830789,0.0001474,53.2154,265.0787,63.9159,296.1985,-4.5749e-05,-1.016e-05,0.0,0 STARLINK-4198,1 52858U 22062AE  24024.28587994 -.00001016  00000-0 -45749-4 0  9997,2 52858  53.2154 265.0787 0001474  63.9159 296.1985 15.08830789 89358,6917.909,95.438,540.793,538.754,0.0
52858.0,STARLINK-4198,PAYLOAD,2024-01-24 19:34:44,15.08842175,0.0001185,53.2133,262.6972,87.4518,272.661,6.0766e-05,6.79e-06,0.0,0 STARLINK-4198,1 52858U 22062AE  24024.81579403  .00000679  00000-0  60766-4 0  9990,2 52858  53.2133 262.6972 0001185  87.4518 272.6610 15.08842175 89438,6917.874,95.437,540.559,538.919,0.0
52858.0,STARLINK-4198,PAYLOAD,2024-01-24 22:45:30,15.08840657,0.0001266,53.215,262.0962,102.4728,257.6406,8.1944e-05,1.017e-05,0.0,0 STARLINK-4198,1 52858U 22062AE  24024.94827284  .00001017  00000-0  81944-4 0  9995,2 52858  53.2150 262.0962 0001266 102.4728 257.6406 15.08840657 88967,6917.878,95.438,540.619,538.868,0.0
52858.0,STARLINK-4198,PAYLOAD,2024-01-25 19:25:31,15.08839168,0.0001239,53.2143,258.2311,87.1182,272.9952,6.7035e-05,7.79e-06,0.0,0 STARLINK-4198,1 52858U 22062AE  24025.80939709  .00000779  00000-0  67035-4 0  9996,2 52858  53.2143 258.2311 0001239  87.1182 272.9952 15.08839168 89587,6917.883,95.438,540.605,538.891,0.0
52858.0,STARLINK-4198,PAYLOAD,2024-01-25 21:00:55,15.08838941,0.0001246,53.2144,257.9338,87.2169,272.8965,8.2468e-05,1.025e-05,0.0,0 STARLINK-4198,1 52858U 22062AE  24025.87563736  .00001025  00000-0  82468-4 0  9998,2 52858  53.2144 257.9338 0001246  87.2169 272.8965 15.08838941 89106,6917.884,95.438,540.611,538.887,0.0
52858.0,STARLINK-4198,PAYLOAD,2024-01-26 22:27:05,15.08850331,0.0001297,53.2146,253.1781,89.1527,270.9614,0.0003509,5.303e-05,0.0,0 STARLINK-4198,1 52858U 22062AE  24026.93547472  .00005303  00000-0  35090-3 0  9996,2 52858  53.2146 253.1781 0001297  89.1527 270.9614 15.08850331 89751,6917.849,95.437,540.611,538.817,0.0
52858.0,STARLINK-4198,PAYLOAD,2024-01-27 19:07:06,15.08845342,0.0001579,53.2131,249.3108,52.7323,307.3813,0.0001687,2.398e-05,0.0,0 STARLINK-4198,1 52858U 22062AE  24027.79659789  .00002398  00000-0  16870-3 0  9992,2 52858  53.2131 249.3108 0001579  52.7323 307.3813 15.08845342 89884,6917.864,95.437,540.821,538.637,0.0
